[{"OBJECT_NAME":"CZ-2F DEB","OBJECT_ID":"2026-024C","EPOCH":"2026-03-05T04:03:06.022944","MEAN_MOTION":15.97922599,"ECCENTRICITY":0.0148758,"INCLINATION":49.9034,"RA_OF_ASC_NODE":28.8555,"ARG_OF_PERICENTER":270.6296,"MEAN_ANOMALY":87.7646,"EPHEMERIS_TYPE":0,"CLASSIFICATION_TYPE":"U","NORAD_CAT_ID":67691,"ELEMENT_SET_NO":999,"REV_AT_EPOCH":409,"BSTAR":0.00076524,"MEAN_MOTION_DOT":0.01309698,"MEAN_MOTION_DDOT":1.1013e-5},{"OBJECT_NAME":"CZ-2F DEB","OBJECT_ID":"2026-024D","EPOCH":"2026-03-05T03:40:18.151104","MEAN_MOTION":15.23579308,"ECCENTRICITY":0.0238,"INCLINATION":50.3185,"RA_OF_ASC_NODE":40.9632,"ARG_OF_PERICENTER":262.178,"MEAN_ANOMALY":95.2103,"EPHEMERIS_TYPE":0,"CLASSIFICATION_TYPE":"U","NORAD_CAT_ID":67692,"ELEMENT_SET_NO":999,"REV_AT_EPOCH":393,"BSTAR":0.0045492,"MEAN_MOTION_DOT":0.00256375,"MEAN_MOTION_DDOT":0},{"OBJECT_NAME":"STARLINK-36748","OBJECT_ID":"2026-025A","EPOCH":"2026-03-05T02:16:48.468288","MEAN_MOTION":15.75202162,"ECCENTRICITY":0.0001313,"INCLINATION":97.284,"RA_OF_ASC_NODE":175.3999,"ARG_OF_PERICENTER":74.2393,"MEAN_ANOMALY":285.9017,"EPHEMERIS_TYPE":0,"CLASSIFICATION_TYPE":"U","NORAD_CAT_ID":67693,"ELEMENT_SET_NO":999,"REV_AT_EPOCH":521,"BSTAR":0.0025469,"MEAN_MOTION_DOT":0.00398235,"MEAN_MOTION_DDOT":0},{"OBJECT_NAME":"STARLINK-36753","OBJECT_ID":"2026-025B","EPOCH":"2026-03-05T03:37:27.436800","MEAN_MOTION":15.71597631,"ECCENTRICITY":0.0016195,"INCLINATION":97.2834,"RA_OF_ASC_NODE":175.4766,"ARG_OF_PERICENTER":150.6426,"MEAN_ANOMALY":209.5751,"EPHEMERIS_TYPE":0,"CLASSIFICATION_TYPE":"U","NORAD_CAT_ID":67694,"ELEMENT_SET_NO":999,"REV_AT_EPOCH":523,"BSTAR":0.00062673,"MEAN_MOTION_DOT":0.00081481,"MEAN_MOTION_DDOT":0},{"OBJECT_NAME":"STARLINK-36750","OBJECT_ID":"2026-025C","EPOCH":"2026-03-05T01:24:31.214304","MEAN_MOTION":15.80975247,"ECCENTRICITY":0.0001108,"INCLINATION":97.284,"RA_OF_ASC_NODE":175.451,"ARG_OF_PERICENTER":94.4001,"MEAN_ANOMALY":265.7394,"EPHEMERIS_TYPE":0,"CLASSIFICATION_TYPE":"U","NORAD_CAT_ID":67695,"ELEMENT_SET_NO":999,"REV_AT_EPOCH":521,"BSTAR":0.0026953,"MEAN_MOTION_DOT":0.0055439,"MEAN_MOTION_DDOT":0},{"OBJECT_NAME":"STARLINK-36401","OBJECT_ID":"2026-025D","EPOCH":"2026-03-05T04:48:45.964800","MEAN_MOTION":15.75264896,"ECCENTRICITY":0.000144,"INCLINATION":97.2841,"RA_OF_ASC_NODE":175.5619,"ARG_OF_PERICENTER":70.2921,"MEAN_ANOMALY":289.8499,"EPHEMERIS_TYPE":0,"CLASSIFICATION_TYPE":"U","NORAD_CAT_ID":67696,"ELEMENT_SET_NO":999,"REV_AT_EPOCH":523,"BSTAR":0.0015118,"MEAN_MOTION_DOT":0.00232353,"MEAN_MOTION_DDOT":0},{"OBJECT_NAME":"STARLINK-36704","OBJECT_ID":"2026-025E","EPOCH":"2026-03-05T03:34:03.479232","MEAN_MOTION":15.7523373,"ECCENTRICITY":0.0001841,"INCLINATION":97.2844,"RA_OF_ASC_NODE":175.4783,"ARG_OF_PERICENTER":54.0205,"MEAN_ANOMALY":306.1231,"EPHEMERIS_TYPE":0,"CLASSIFICATION_TYPE":"U","NORAD_CAT_ID":67697,"ELEMENT_SET_NO":999,"REV_AT_EPOCH":522,"BSTAR":0.0021755,"MEAN_MOTION_DOT":0.00338183,"MEAN_MOTION_DDOT":0},{"OBJECT_NAME":"STARLINK-36697","OBJECT_ID":"2026-025F","EPOCH":"2026-03-05T01:15:13.046976","MEAN_MOTION":15.80919796,"ECCENTRICITY":0.0001634,"INCLINATION":97.285,"RA_OF_ASC_NODE":175.4586,"ARG_OF_PERICENTER":54.271,"MEAN_ANOMALY":305.871,"EPHEMERIS_TYPE":0,"CLASSIFICATION_TYPE":"U","NORAD_CAT_ID":67698,"ELEMENT_SET_NO":999,"REV_AT_EPOCH":521,"BSTAR":0.0020031,"MEAN_MOTION_DOT":0.00403764,"MEAN_MOTION_DDOT":0},{"OBJECT_NAME":"STARLINK-36716","OBJECT_ID":"2026-025G","EPOCH":"2026-03-05T04:00:01.999584","MEAN_MOTION":15.75130876,"ECCENTRICITY":0.0001131,"INCLINATION":97.285,"RA_OF_ASC_NODE":175.5712,"ARG_OF_PERICENTER":78.0011,"MEAN_ANOMALY":192.3828,"EPHEMERIS_TYPE":0,"CLASSIFICATION_TYPE":"U","NORAD_CAT_ID":67699,"ELEMENT_SET_NO":999,"REV_AT_EPOCH":528,"BSTAR":0.00064484,"MEAN_MOTION_DOT":0.000969,"MEAN_MOTION_DDOT":0},{"OBJECT_NAME":"STARLINK-36712","OBJECT_ID":"2026-025H","EPOCH":"2026-03-05T04:51:18.585216","MEAN_MOTION":15.75364847,"ECCENTRICITY":0.0004018,"INCLINATION":97.2846,"RA_OF_ASC_NODE":175.5594,"ARG_OF_PERICENTER":70.8905,"MEAN_ANOMALY":289.2795,"EPHEMERIS_TYPE":0,"CLASSIFICATION_TYPE":"U","NORAD_CAT_ID":67700,"ELEMENT_SET_NO":999,"REV_AT_EPOCH":523,"BSTAR":0.0025353,"MEAN_MOTION_DOT":0.00399309,"MEAN_MOTION_DDOT":0},{"OBJECT_NAME":"STARLINK-36713","OBJECT_ID":"2026-025J","EPOCH":"2026-03-05T04:53:50.654400","MEAN_MOTION":15.75408049,"ECCENTRICITY":0.0001707,"INCLINATION":97.285,"RA_OF_ASC_NODE":175.5563,"ARG_OF_PERICENTER":95.4059,"MEAN_ANOMALY":264.7401,"EPHEMERIS_TYPE":0,"CLASSIFICATION_TYPE":"U","NORAD_CAT_ID":67701,"ELEMENT_SET_NO":999,"REV_AT_EPOCH":524,"BSTAR":0.0030553,"MEAN_MOTION_DOT":0.0048714,"MEAN_MOTION_DDOT":0},{"OBJECT_NAME":"STARLINK-36695","OBJECT_ID":"2026-025K","EPOCH":"2026-03-05T01:53:56.352480","MEAN_MOTION":15.75235357,"ECCENTRICITY":0.0001246,"INCLINATION":97.2857,"RA_OF_ASC_NODE":175.4177,"ARG_OF_PERICENTER":54.8757,"MEAN_ANOMALY":305.2625,"EPHEMERIS_TYPE":0,"CLASSIFICATION_TYPE":"U","NORAD_CAT_ID":67702,"ELEMENT_SET_NO":999,"REV_AT_EPOCH":521,"BSTAR":0.001486,"MEAN_MOTION_DOT":0.00227983,"MEAN_MOTION_DDOT":0},{"OBJECT_NAME":"STARLINK-36630","OBJECT_ID":"2026-025L","EPOCH":"2026-03-04T06:49:54.557472","MEAN_MOTION":15.80886698,"ECCENTRICITY":0.00020658,"INCLINATION":97.2851,"RA_OF_ASC_NODE":174.6635,"ARG_OF_PERICENTER":101.8148,"MEAN_ANOMALY":258.3352,"EPHEMERIS_TYPE":0,"CLASSIFICATION_TYPE":"U","NORAD_CAT_ID":67703,"ELEMENT_SET_NO":999,"REV_AT_EPOCH":509,"BSTAR":0.00088510392,"MEAN_MOTION_DOT":0.00173374,"MEAN_MOTION_DDOT":0},{"OBJECT_NAME":"STARLINK-36338","OBJECT_ID":"2026-025M","EPOCH":"2026-03-05T00:00:01.999296","MEAN_MOTION":15.75219148,"ECCENTRICITY":0.0001567,"INCLINATION":97.2853,"RA_OF_ASC_NODE":175.3893,"ARG_OF_PERICENTER":123.9062,"MEAN_ANOMALY":269.9642,"EPHEMERIS_TYPE":0,"CLASSIFICATION_TYPE":"U","NORAD_CAT_ID":67704,"ELEMENT_SET_NO":999,"REV_AT_EPOCH":515,"BSTAR":-0.00024031,"MEAN_MOTION_DOT":-0.0003587,"MEAN_MOTION_DDOT":0},{"OBJECT_NAME":"STARLINK-36316","OBJECT_ID":"2026-025N","EPOCH":"2026-03-04T07:19:23.280384","MEAN_MOTION":15.75210312,"ECCENTRICITY":0.00015982,"INCLINATION":97.2857,"RA_OF_ASC_NODE":174.636,"ARG_OF_PERICENTER":22.75,"MEAN_ANOMALY":337.3836,"EPHEMERIS_TYPE":0,"CLASSIFICATION_TYPE":"U","NORAD_CAT_ID":67705,"ELEMENT_SET_NO":999,"REV_AT_EPOCH":509,"BSTAR":0.0017620146,"MEAN_MOTION_DOT":0.00271453,"MEAN_MOTION_DDOT":0},{"OBJECT_NAME":"STARLINK-36707","OBJECT_ID":"2026-025P","EPOCH":"2026-03-05T04:00:01.999584","MEAN_MOTION":15.75151017,"ECCENTRICITY":0.0001364,"INCLINATION":97.2856,"RA_OF_ASC_NODE":175.5876,"ARG_OF_PERICENTER":66.4443,"MEAN_ANOMALY":247.9244,"EPHEMERIS_TYPE":0,"CLASSIFICATION_TYPE":"U","NORAD_CAT_ID":67706,"ELEMENT_SET_NO":999,"REV_AT_EPOCH":497,"BSTAR":0.00056982,"MEAN_MOTION_DOT":0.00085574,"MEAN_MOTION_DDOT":0},{"OBJECT_NAME":"STARLINK-36645","OBJECT_ID":"2026-025Q","EPOCH":"2026-03-04T21:08:18.723264","MEAN_MOTION":15.75152092,"ECCENTRICITY":0.0001064,"INCLINATION":97.2861,"RA_OF_ASC_NODE":175.2306,"ARG_OF_PERICENTER":171.3735,"MEAN_ANOMALY":188.7549,"EPHEMERIS_TYPE":0,"CLASSIFICATION_TYPE":"U","NORAD_CAT_ID":67707,"ELEMENT_SET_NO":999,"REV_AT_EPOCH":518,"BSTAR":0.0024718,"MEAN_MOTION_DOT":0.00385062,"MEAN_MOTION_DDOT":0}]
